[{"OBJECT_NAME":"STARLINK-5948","OBJECT_ID":"2023-042F","EPOCH":"2026-03-09T22:00:01.999584","MEAN_MOTION":15.16709468,"ECCENTRICITY":0.00018493,"INCLINATION":43.0003,"RA_OF_ASC_NODE":54.3638,"ARG_OF_PERICENTER":224.2844,"MEAN_ANOMALY":23.8893,"EPHEMERIS_TYPE":0,"CLASSIFICATION_TYPE":"U","NORAD_CAT_ID":55991,"ELEMENT_SET_NO":999,"REV_AT_EPOCH":573,"BSTAR":0.060578731,"MEAN_MOTION_DOT":0.01311202,"MEAN_MOTION_DDOT":0},{"OBJECT_NAME":"FLOCK 4BE-32","OBJECT_ID":"2024-149AF","EPOCH":"2026-03-09T19:11:59.009856","MEAN_MOTION":15.38487968,"ECCENTRICITY":0.0002762,"INCLINATION":97.376,"RA_OF_ASC_NODE":151.9037,"ARG_OF_PERICENTER":261.0637,"MEAN_ANOMALY":99.0296,"EPHEMERIS_TYPE":0,"CLASSIFICATION_TYPE":"U","NORAD_CAT_ID":60497,"ELEMENT_SET_NO":999,"REV_AT_EPOCH":8703,"BSTAR":0.00058115352,"MEAN_MOTION_DOT":0.00022026,"MEAN_MOTION_DDOT":0}]
